{
  "norad_id": 48968,
  "name": "ONEWEB-0250",
  "history": [
    {
      "epoch": "2026-04-11T19:41:16.155168Z",
      "apogee_km": 1163.6277692362028,
      "perigee_km": 1161.4409745383546,
      "latitude_deg": -1.738097709619793e-05,
      "longitude_deg": 104.58345756655471,
      "height_km": 1165.0179539651,
      "semi_major_axis_km": 7540.671371887278,
      "eccentricity": 0.000145,
      "inclination_deg": 87.9058,
      "raan_deg": 239.9351,
      "arg_perigee_deg": 67.1489,
      "mean_anomaly_deg": 292.98,
      "mean_motion_rev_day": 13.25829691
    },
    {
      "epoch": "2026-04-12T19:14:01.757472Z",
      "apogee_km": 1163.5956575007122,
      "perigee_km": 1161.4705458526578,
      "latitude_deg": -2.8518411290514525e-05,
      "longitude_deg": 110.22794698755652,
      "height_km": 1165.0354213997207,
      "semi_major_axis_km": 7540.670101676685,
      "eccentricity": 0.00014091,
      "inclination_deg": 87.9059,
      "raan_deg": 239.7366,
      "arg_perigee_deg": 67.5402,
      "mean_anomaly_deg": 292.5883,
      "mean_motion_rev_day": 13.25830026
    },
    {
      "epoch": "2026-04-14T20:08:13.419744Z",
      "apogee_km": 1163.5162609555982,
      "perigee_km": 1161.5496542306582,
      "latitude_deg": 3.9243985316642774e-05,
      "longitude_deg": 94.25877372437692,
      "height_km": 1165.0728964170478,
      "semi_major_axis_km": 7540.669957593128,
      "eccentricity": 0.0001304,
      "inclination_deg": 87.9058,
      "raan_deg": 239.3244,
      "arg_perigee_deg": 67.9927,
      "mean_anomaly_deg": 292.1348,
      "mean_motion_rev_day": 13.25830064
    },
    {
      "epoch": "2026-04-15T14:14:57.668064Z",
      "apogee_km": 1163.4950424034714,
      "perigee_km": 1161.564631693187,
      "latitude_deg": -8.787955829294813e-05,
      "longitude_deg": -178.3220428361191,
      "height_km": 1165.0900605312247,
      "semi_major_axis_km": 7540.666837048329,
      "eccentricity": 0.000128,
      "inclination_deg": 87.9065,
      "raan_deg": 239.1718,
      "arg_perigee_deg": 68.8512,
      "mean_anomaly_deg": 291.276,
      "mean_motion_rev_day": 13.25830887
    },
    {
      "epoch": "2026-04-16T10:10:22.506240Z",
      "apogee_km": 1163.4740369959827,
      "perigee_km": 1161.5918857736206,
      "latitude_deg": -7.401372422106692e-06,
      "longitude_deg": -118.16166248195589,
      "height_km": 1165.1125781077253,
      "semi_major_axis_km": 7540.669961384801,
      "eccentricity": 0.0001248,
      "inclination_deg": 87.9067,
      "raan_deg": 239.0039,
      "arg_perigee_deg": 69.5451,
      "mean_anomaly_deg": 290.5819,
      "mean_motion_rev_day": 13.25830063
    },
    {
      "epoch": "2026-04-17T15:09:09.413280Z",
      "apogee_km": 1163.4582847514366,
      "perigee_km": 1161.6050900148257,
      "latitude_deg": -2.417154394522916e-05,
      "longitude_deg": 165.7084388873659,
      "height_km": 1165.1585553569812,
      "semi_major_axis_km": 7540.668687383131,
      "eccentricity": 0.00012288,
      "inclination_deg": 87.9069,
      "raan_deg": 238.7596,
      "arg_perigee_deg": 72.3051,
      "mean_anomaly_deg": 287.8219,
      "mean_motion_rev_day": 13.25830399
    },
    {
      "epoch": "2026-04-18T14:41:54.981024Z",
      "apogee_km": 1163.4900037776488,
      "perigee_km": 1161.5626102363776,
      "latitude_deg": 1.9919587959405436e-05,
      "longitude_deg": 171.35317582099523,
      "height_km": 1165.2484017003524,
      "semi_major_axis_km": 7540.663307007013,
      "eccentricity": 0.0001278,
      "inclination_deg": 87.9069,
      "raan_deg": 238.5612,
      "arg_perigee_deg": 78.8544,
      "mean_anomaly_deg": 281.2736,
      "mean_motion_rev_day": 13.25831818
    },
    {
      "epoch": "2026-04-19T19:40:41.995200Z",
      "apogee_km": 1163.3724893494973,
      "perigee_km": 1161.6969520931534,
      "latitude_deg": -8.19216144340188e-05,
      "longitude_deg": 95.2232236210184,
      "height_km": 1165.2201821919168,
      "semi_major_axis_km": 7540.671720721325,
      "eccentricity": 0.0001111,
      "inclination_deg": 87.9073,
      "raan_deg": 238.3173,
      "arg_perigee_deg": 74.5463,
      "mean_anomaly_deg": 285.5795,
      "mean_motion_rev_day": 13.25829599
    }
  ]
}